NORAD_CAT_ID,OBJECT_NAME,OBJECT_TYPE,EPOCH,MEAN_MOTION,ECCENTRICITY,INCLINATION,RA_OF_ASC_NODE,ARG_OF_PERICENTER,MEAN_ANOMALY,BSTAR,MEAN_MOTION_DOT,MEAN_MOTION_DDOT,TLE_LINE0,TLE_LINE1,TLE_LINE2,SEMIMAJOR_AXIS,PERIOD,APOGEE,PERIGEE,DECAYED
55297.0,STARLINK-5284,PAYLOAD,2024-05-10 18:36:20,14.98326476,0.0002999,70.0004,268.4391,272.3365,87.7451,-3.9356e-05,-5.62e-06,0.0,0 STARLINK-5284,1 55297U 23010AE  24131.77524259 -.00000562  00000-0 -39356-4 0  9991,2 55297  70.0004 268.4391 0002999 272.3365  87.7451 14.98326476 72912,6950.204,96.107,574.153,569.984,0.0
55297.0,STARLINK-5284,PAYLOAD,2024-05-11 13:49:52,14.98384794,0.0002898,70.0002,266.4183,252.153,107.9313,0.0006077,7.176e-05,0.0,0 STARLINK-5284,1 55297U 23010AE  24132.57629988  .00007176  00000-0  60770-3 0  9994,2 55297  70.0002 266.4183 0002898 252.1530 107.9313 14.98384794 73038,6950.023,96.103,573.903,569.874,0.0
55297.0,STARLINK-5284,PAYLOAD,2024-05-11 18:38:21,14.98311625,0.0002524,69.9998,265.9128,286.4352,73.6529,-0.00026424,-3.243e-05,0.0,0 STARLINK-5284,1 55297U 23010AE  24132.77664340 -.00003243  00000-0 -26424-3 0  9998,2 55297  69.9998 265.9128 0002524 286.4352  73.6529 14.98311625 73064,6950.25,96.108,573.869,570.36,0.0
55297.0,STARLINK-5284,PAYLOAD,2024-05-12 02:39:05,14.98282959,0.0002344,70.0,265.072,289.4298,70.6607,-0.00060333,-7.275e-05,0.0,0 STARLINK-5284,1 55297U 23010AE  24133.11047703 -.00007275  00000-0 -60333-3 0  9991,2 55297  70.0000 265.0720 0002344 289.4298  70.6607 14.98282959 73119,6950.338,96.11,573.833,570.574,0.0
55297.0,STARLINK-5284,PAYLOAD,2024-05-12 13:52:02,14.98287331,0.0002756,70.0001,263.8938,265.2068,94.8776,-0.00028384,-3.474e-05,0.0,0 STARLINK-5284,1 55297U 23010AE  24133.57780296 -.00003474  00000-0 -28384-3 0  9999,2 55297  70.0001 263.8938 0002756 265.2068  94.8776 14.98287331 73182,6950.325,96.11,574.105,570.274,0.0
55297.0,STARLINK-5284,PAYLOAD,2024-05-12 15:28:10,14.98290569,0.000275,70.0,263.7253,267.6989,92.3855,-0.00029636,-3.624e-05,0.0,0 STARLINK-5284,1 55297U 23010AE  24133.64456310 -.00003624  00000-0 -29636-3 0  9992,2 55297  70.0000 263.7253 0002750 267.6989  92.3855 14.98290569 73506,6950.315,96.11,574.091,570.268,0.0
55297.0,STARLINK-5284,PAYLOAD,2024-05-12 18:40:25,14.98307916,0.0003187,69.9998,263.3886,263.3546,96.725,-0.00013655,-1.721e-05,0.0,0 STARLINK-5284,1 55297U 23010AE  24133.77807027 -.00001721  00000-0 -13655-3 0  9991,2 55297  69.9998 263.3886 0003187 263.3546  96.7250 14.98307916 73214,6950.261,96.108,574.341,569.911,0.0
55297.0,STARLINK-5284,PAYLOAD,2024-05-13 12:17:52,14.98351515,0.0002641,70.0008,261.5378,260.1793,99.9068,-0.00032686,-3.993e-05,0.0,0 STARLINK-5284,1 55297U 23010AE  24134.51241380 -.00003993  00000-0 -32686-3 0  9996,2 55297  70.0008 261.5378 0002641 260.1793  99.9068 14.98351515 73630,6950.126,96.106,573.827,570.156,0.0
55297.0,STARLINK-5284,PAYLOAD,2024-05-13 18:42:24,14.98355667,0.0002681,69.9999,260.8629,265.0117,95.0736,-0.00024095,-2.969e-05,0.0,0 STARLINK-5284,1 55297U 23010AE  24134.77944688 -.00002969  00000-0 -24095-3 0  9992,2 55297  69.9999 260.8629 0002681 265.0117  95.0736 14.98355667 73670,6950.114,96.105,573.842,570.115,0.0
55297.0,STARLINK-5284,PAYLOAD,2024-05-14 12:19:53,14.98299715,0.0002727,70.0005,259.0117,279.2688,80.8163,0.0010568,0.00012529,0.0,0 STARLINK-5284,1 55297U 23010AE  24135.51381192  .00012529  00000-0  10568-2 0  9990,2 55297  70.0005 259.0117 0002727 279.2688  80.8163 14.98299715 73479,6950.287,96.109,574.047,570.256,0.0
55297.0,STARLINK-5284,PAYLOAD,2024-05-15 01:08:56,14.98345383,0.0002934,69.9998,257.6628,276.0566,84.0259,0.00052174,6.14e-05,0.0,0 STARLINK-5284,1 55297U 23010AE  24136.04787616  .00006140  00000-0  52174-3 0  9992,2 55297  69.9998 257.6628 0002934 276.0566  84.0259 14.98345383 73552,6950.145,96.106,574.049,569.971,0.0
55297.0,STARLINK-5284,PAYLOAD,2024-05-15 12:21:54,14.9833836,0.0003139,69.9995,256.4852,273.1158,86.9642,-0.00015815,-1.98e-05,0.0,0 STARLINK-5284,1 55297U 23010AE  24136.51521276 -.00001980  00000-0 -15815-3 0  9992,2 55297  69.9995 256.4852 0003139 273.1158  86.9642 14.98338360 73620,6950.167,96.106,574.214,569.85,0.0
55297.0,STARLINK-5284,PAYLOAD,2024-05-15 13:58:02,14.98337446,0.0002976,70.0001,256.3153,285.3984,74.6846,-0.00030585,-3.741e-05,0.0,0 STARLINK-5284,1 55297U 23010AE  24136.58197848 -.00003741  00000-0 -30585-3 0  9991,2 55297  70.0001 256.3153 0002976 285.3984  74.6846 14.98337446 73943,6950.17,96.107,574.103,569.966,0.0
55297.0,STARLINK-5284,PAYLOAD,2024-05-15 17:10:17,14.98347892,0.000303,70.0,255.9813,263.9382,96.1432,-3.482e-05,-5.09e-06,0.0,0 STARLINK-5284,1 55297U 23010AE  24136.71548100 -.00000509  00000-0 -34820-4 0  9993,2 55297  70.0000 255.9813 0003030 263.9382  96.1432 14.98347892 73650,6950.138,96.106,574.108,569.897,0.0
55297.0,STARLINK-5284,PAYLOAD,2024-05-16 14:00:01,14.98353212,0.0002703,69.9993,253.7911,261.1303,98.955,-0.00010492,-1.345e-05,0.0,0 STARLINK-5284,1 55297U 23010AE  24137.58334919 -.00001345  00000-0 -10492-3 0  9997,2 55297  69.9993 253.7911 0002703 261.1303  98.9550 14.98353212 74095,6950.121,96.106,573.865,570.107,0.0
55297.0,STARLINK-5284,PAYLOAD,2024-05-16 17:12:17,14.98354626,0.0002521,69.9997,253.4542,257.4776,102.6101,-9.5982e-05,-1.239e-05,0.0,0 STARLINK-5284,1 55297U 23010AE  24137.71686625 -.00001239  00000-0 -95982-4 0  9996,2 55297  69.9997 253.4542 0002521 257.4776 102.6101 14.98354626 73809,6950.117,96.105,573.734,570.23,0.0
55297.0,STARLINK-5284,PAYLOAD,2024-05-17 01:12:58,14.98326451,0.0002788,70.0009,252.6128,268.1065,91.9775,6.1238e-05,6.38e-06,0.0,0 STARLINK-5284,1 55297U 23010AE  24138.05067347  .00000638  00000-0  61238-4 0  9995,2 55297  70.0009 252.6128 0002788 268.1065  91.9775 14.98326451 73859,6950.204,96.107,574.007,570.131,0.0
55297.0,STARLINK-5284,PAYLOAD,2024-05-17 14:02:02,14.98335522,0.0003028,69.9992,251.2667,264.6691,95.4123,-3.2397e-05,-4.8e-06,0.0,0 STARLINK-5284,1 55297U 23010AE  24138.58474984 -.00000480  00000-0 -32397-4 0  9993,2 55297  69.9992 251.2667 0003028 264.6691  95.4123 14.98335522 74243,6950.176,96.107,574.145,569.936,0.0
55297.0,STARLINK-5284,PAYLOAD,2024-05-17 17:14:18,14.98335593,0.0003013,69.9992,250.93,264.6345,95.447,-2.9991e-05,-4.51e-06,0.0,0 STARLINK-5284,1 55297U 23010AE  24138.71826920 -.00000451  00000-0 -29991-4 0  9993,2 55297  69.9992 250.9300 0003013 264.6345  95.4470 14.98335593 73953,6950.176,96.107,574.135,569.947,0.0
55297.0,STARLINK-5284,PAYLOAD,2024-05-18 14:04:02,14.98344849,0.000293,69.9988,248.7428,271.9066,88.1757,1.2166e-06,-7.8e-07,0.0,0 STARLINK-5284,1 55297U 23010AE  24139.58613972 -.00000078  00000-0  12166-5 0  9991,2 55297  69.9988 248.7428 0002930 271.9066  88.1757 14.98344849 74392,6950.147,96.106,574.048,569.976,0.0
55297.0,STARLINK-5284,PAYLOAD,2024-05-18 17:16:18,14.98348066,0.0003106,69.9998,248.4082,271.4821,88.5983,3.7085e-05,3.5e-06,0.0,0 STARLINK-5284,1 55297U 23010AE  24139.71965524  .00000350  00000-0  37085-4 0  9997,2 55297  69.9998 248.4082 0003106 271.4821  88.5983 14.98348066 74105,6950.137,96.106,574.161,569.843,0.0
55297.0,STARLINK-5284,PAYLOAD,2024-05-19 14:06:05,14.9831392,0.0003075,69.999,246.2164,272.963,87.1177,-0.00020426,-2.528e-05,0.0,0 STARLINK-5284,1 55297U 23010AE  24140.58756829 -.00002528  00000-0 -20426-3 0  9991,2 55297  69.9990 246.2164 0003075 272.9630  87.1177 14.98313920 74542,6950.243,96.108,574.245,569.97,0.0
55297.0,STARLINK-5284,PAYLOAD,2024-05-19 17:18:21,14.98318154,0.0003035,70.0,245.8834,261.5357,98.5458,-0.00015581,-1.951e-05,0.0,0 STARLINK-5284,1 55297U 23010AE  24140.72108459 -.00001951  00000-0 -15581-3 0  9992,2 55297  70.0000 245.8834 0003035 261.5357  98.5458 14.98318154 74252,6950.23,96.108,574.204,569.985,0.0
55297.0,STARLINK-5284,PAYLOAD,2024-05-20 12:31:57,14.98332882,0.0002954,70.0006,243.8619,278.0423,82.0401,3.8784e-05,3.7e-06,0.0,0 STARLINK-5284,1 55297U 23010AE  24141.52219215  .00000370  00000-0  38784-4 0  9997,2 55297  70.0006 243.8619 0002954 278.0423  82.0401 14.98332882 74376,6950.184,96.107,574.102,569.996,0.0
55297.0,STARLINK-5284,PAYLOAD,2024-05-20 14:08:05,14.98336772,0.0002748,70.0006,243.6938,275.6591,84.4254,7.8236e-05,8.41e-06,0.0,0 STARLINK-5284,1 55297U 23010AE  24141.58894825  .00000841  00000-0  78236-4 0  9998,2 55297  70.0006 243.6938 0002748 275.6591  84.4254 14.98336772 74697,6950.172,96.107,573.947,570.127,0.0
55297.0,STARLINK-5284,PAYLOAD,2024-05-20 15:44:12,14.98341778,0.0002858,70.0011,243.5271,257.913,102.1709,0.0001383,1.558e-05,0.0,0 STARLINK-5284,1 55297U 23010AE  24141.65570161  .00001558  00000-0  13830-3 0  9994,2 55297  70.0011 243.5271 0002858 257.9130 102.1709 14.98341778 74398,6950.156,96.106,574.008,570.035,0.0
55297.0,STARLINK-5284,PAYLOAD,2024-05-21 12:33:58,14.9831946,0.0002654,70.0016,241.3405,228.5549,131.5382,0.00017958,2.05e-05,0.0,0 STARLINK-5284,1 55297U 23010AE  24142.52359624  .00002050  00000-0  17958-3 0  9993,2 55297  70.0016 241.3405 0002654 228.5549 131.5382 14.98319460 74521,6950.225,96.108,573.935,570.246,0.0
55297.0,STARLINK-5284,PAYLOAD,2024-05-21 14:10:06,14.98319488,0.0002738,70.0006,241.1713,253.4779,106.6079,0.0001571,1.781e-05,0.0,0 STARLINK-5284,1 55297U 23010AE  24142.59035772  .00001781  00000-0  15710-3 0  9999,2 55297  70.0006 241.1713 0002738 253.4779 106.6079 14.98319488 74846,6950.225,96.108,573.993,570.187,0.0
55297.0,STARLINK-5284,PAYLOAD,2024-05-21 15:46:14,14.98320426,0.0002656,70.0005,241.003,245.8743,114.2138,0.0001535,1.739e-05,0.0,0 STARLINK-5284,1 55297U 23010AE  24142.65711736  .00001739  00000-0  15350-3 0  9990,2 55297  70.0005 241.0030 0002656 245.8743 114.2138 14.98320426 74857,6950.222,96.108,573.933,570.242,0.0
55297.0,STARLINK-5284,PAYLOAD,2024-05-22 10:59:51,14.98333841,0.0002791,70.0009,238.9837,252.0107,108.0748,-0.00011863,-1.508e-05,0.0,0 STARLINK-5284,1 55297U 23010AE  24143.45823656 -.00001508  00000-0 -11863-3 0  9995,2 55297  70.0009 238.9837 0002791 252.0107 108.0748 14.98333841 74971,6950.181,96.107,573.986,570.106,0.0
